[{"OBJECT_NAME":"JILIN-1 GAOFEN 3D04","OBJECT_ID":"2022-046B","EPOCH":"2026-03-09T17:36:07.679808","MEAN_MOTION":15.76354751,"ECCENTRICITY":0.00015268,"INCLINATION":97.4899,"RA_OF_ASC_NODE":183.6662,"ARG_OF_PERICENTER":245.0805,"MEAN_ANOMALY":115.0302,"EPHEMERIS_TYPE":0,"CLASSIFICATION_TYPE":"U","NORAD_CAT_ID":52389,"ELEMENT_SET_NO":999,"REV_AT_EPOCH":21487,"BSTAR":0.001117663,"MEAN_MOTION_DOT":0.00178961,"MEAN_MOTION_DDOT":0},{"OBJECT_NAME":"STARLINK-36353","OBJECT_ID":"2026-032Z","EPOCH":"2026-03-09T22:03:26.400384","MEAN_MOTION":15.75265139,"ECCENTRICITY":9.69e-5,"INCLINATION":97.2842,"RA_OF_ASC_NODE":255.4776,"ARG_OF_PERICENTER":109.3678,"MEAN_ANOMALY":250.7692,"EPHEMERIS_TYPE":0,"CLASSIFICATION_TYPE":"U","NORAD_CAT_ID":67820,"ELEMENT_SET_NO":999,"REV_AT_EPOCH":482,"BSTAR":0.0014450387,"MEAN_MOTION_DOT":0.00221819,"MEAN_MOTION_DDOT":0}]
